{"type": "FeatureCollection", "features": [ {"type": "Feature", "properties": {"norad_id": 33867, "name": "IRIDIUM 33 DEB", "group": "iridium-33-debris", "lat": 68.97333336548158, "lon": 157.6344619722894, "alt_km": 318.295856159687, "timestamp": "2025-12-18T08:58:43.799602+00:00", "meta": {"OBJECT_NAME": "IRIDIUM 33 DEB", "OBJECT_ID": "1997-051AL", "EPOCH": "2025-12-17T17:17:38.563008", "MEAN_MOTION": 15.77439013, "ECCENTRICITY": 0.00137248, "INCLINATION": 86.3647, "RA_OF_ASC_NODE": 347.4994, "ARG_OF_PERICENTER": 92.8453, "MEAN_ANOMALY": 267.4392, "EPHEMERIS_TYPE": 0, "CLASSIFICATION_TYPE": "U", "NORAD_CAT_ID": 33867, "ELEMENT_SET_NO": 999, "REV_AT_EPOCH": 89589, "BSTAR": 0.0066840387, "MEAN_MOTION_DOT": 0.01246262, "MEAN_MOTION_DDOT": 0}, "tle": {"line1": "1 33867U 97051AL  25351.72058522  .01246262  00000+0  66840-2 0  9994", "line2": "2 33867  86.3647 347.4994 0013724  92.8453 267.4392 15.77439013895893"}}, "geometry": {"type": "Point", "coordinates": [157.6344619722894, 68.97333336548158]}}, {"type": "Feature", "properties": {"norad_id": 33870, "name": "IRIDIUM 33 DEB", "group": "iridium-33-debris", "lat": 64.72172505811511, "lon": -131.8696591733204, "alt_km": 721.813984292462, "timestamp": "2025-12-18T08:58:43.799613+00:00", "meta": {"OBJECT_NAME": "IRIDIUM 33 DEB", "OBJECT_ID": "1997-051AP", "EPOCH": "2025-12-17T16:26:11.652576", "MEAN_MOTION": 14.45877028, "ECCENTRICITY": 0.00219923, "INCLINATION": 86.3747, "RA_OF_ASC_NODE": 56.1412, "ARG_OF_PERICENTER": 162.2109, "MEAN_ANOMALY": 327.5308, "EPHEMERIS_TYPE": 0, "CLASSIFICATION_TYPE": "U", "NORAD_CAT_ID": 33870, "ELEMENT_SET_NO": 999, "REV_AT_EPOCH": 88208, "BSTAR": 0.00054897647, "MEAN_MOTION_DOT": 1.975e-05, "MEAN_MOTION_DDOT": 0}, "tle": {"line1": "1 33870U 97051AP  25351.68485709  .00001975  00000+0  54898-3 0  9994", "line2": "2 33870  86.3747  56.1412 0021992 162.2109 327.5308 14.45877028882081"}}, "geometry": {"type": "Point", "coordinates": [-131.8696591733204, 64.72172505811511]}}, {"type": "Feature", "properties": {"norad_id": 33881, "name": "IRIDIUM 33 DEB", "group": "iridium-33-debris", "lat": -21.960143591236285, "lon": -74.24638628402276, "alt_km": 678.7254942500867, "timestamp": "2025-12-18T08:58:43.799624+00:00", "meta": {"OBJECT_NAME": "IRIDIUM 33 DEB", "OBJECT_ID": "1997-051BA", "EPOCH": "2025-12-17T13:59:16.230336", "MEAN_MOTION": 14.56660218, "ECCENTRICITY": 0.00614907, "INCLINATION": 86.386, "RA_OF_ASC_NODE": 104.6373, "ARG_OF_PERICENTER": 159.0678, "MEAN_ANOMALY": 215.4693, "EPHEMERIS_TYPE": 0, "CLASSIFICATION_TYPE": "U", "NORAD_CAT_ID": 33881, "ELEMENT_SET_NO": 999, "REV_AT_EPOCH": 87571, "BSTAR": 0.0015160031, "MEAN_MOTION_DOT": 6.964e-05, "MEAN_MOTION_DDOT": 0}, "tle": {"line1": "1 33881U 97051BA  25351.58282674  .00006964  00000+0  15160-2 0  9992", "line2": "2 33881  86.3860 104.6373 0061490 159.0678 215.4693 14.56660218875713"}}, "geometry": {"type": "Point", "coordinates": [-74.24638628402276, -21.960143591236285]}}, {"type": "Feature", "properties": {"norad_id": 33884, "name": "IRIDIUM 33 DEB", "group": "iridium-33-debris", "lat": -30.456259464030204, "lon": -170.5849572400041, "alt_km": 643.4324106776594, "timestamp": "2025-12-18T08:58:43.799637+00:00", "meta": {"OBJECT_NAME": "IRIDIUM 33 DEB", "OBJECT_ID": "1997-051BD", "EPOCH": "2025-12-17T13:04:54.280416", "MEAN_MOTION": 14.77523621, "ECCENTRICITY": 0.00093111, "INCLINATION": 86.3696, "RA_OF_ASC_NODE": 7.6497, "ARG_OF_PERICENTER": 305.3412, "MEAN_ANOMALY": 178.2939, "EPHEMERIS_TYPE": 0, "CLASSIFICATION_TYPE": "U", "NORAD_CAT_ID": 33884, "ELEMENT_SET_NO": 999, "REV_AT_EPOCH": 88918, "BSTAR": 0.0011919689, "MEAN_MOTION_DOT": 8.535e-05, "MEAN_MOTION_DDOT": 0}, "tle": {"line1": "1 33884U 97051BD  25351.54507269  .00008535  00000+0  11920-2 0  9997", "line2": "2 33884  86.3696   7.6497 0009311 305.3412 178.2939 14.77523621889182"}}, "geometry": {"type": "Point", "coordinates": [-170.5849572400041, -30.456259464030204]}}, {"type": "Feature", "properties": {"norad_id": 33886, "name": "IRIDIUM 33 DEB", "group": "iridium-33-debris", "lat": 16.992368704357645, "lon": 65.96494130137768, "alt_km": 780.4264272845612, "timestamp": "2025-12-18T08:58:43.799648+00:00", "meta": {"OBJECT_NAME": "IRIDIUM 33 DEB", "OBJECT_ID": "1997-051BF", "EPOCH": "2025-12-17T18:23:51.709344", "MEAN_MOTION": 14.36057926, "ECCENTRICITY": 0.00127005, "INCLINATION": 86.3828, "RA_OF_ASC_NODE": 65.113, "ARG_OF_PERICENTER": 223.4919, "MEAN_ANOMALY": 254.6704, "EPHEMERIS_TYPE": 0, "CLASSIFICATION_TYPE": "U", "NORAD_CAT_ID": 33886, "ELEMENT_SET_NO": 999, "REV_AT_EPOCH": 88124, "BSTAR": 0.00015934351, "MEAN_MOTION_DOT": 4.83e-06, "MEAN_MOTION_DDOT": 0}, "tle": {"line1": "1 33886U 97051BF  25351.76657071  .00000483  00000+0  15934-3 0  9994", "line2": "2 33886  86.3828  65.1130 0012700 223.4919 254.6704 14.36057926881245"}}, "geometry": {"type": "Point", "coordinates": [65.96494130137768, 16.992368704357645]}}, {"type": "Feature", "properties": {"norad_id": 33887, "name": "IRIDIUM 33 DEB", "group": "iridium-33-debris", "lat": -23.017217949902633, "lon": -0.6092860049999596, "alt_km": 775.5797388657502, "timestamp": "2025-12-18T08:58:43.799659+00:00", "meta": {"OBJECT_NAME": "IRIDIUM 33 DEB", "OBJECT_ID": "1997-051BG", "EPOCH": "2025-12-17T12:04:10.318080", "MEAN_MOTION": 14.37225313, "ECCENTRICITY": 0.00049044, "INCLINATION": 86.3042, "RA_OF_ASC_NODE": 1.3395, "ARG_OF_PERICENTER": 206.8502, "MEAN_ANOMALY": 305.3018, "EPHEMERIS_TYPE": 0, "CLASSIFICATION_TYPE": "U", "NORAD_CAT_ID": 33887, "ELEMENT_SET_NO": 999, "REV_AT_EPOCH": 88233, "BSTAR": 0.00012790558, "MEAN_MOTION_DOT": 4e-06, "MEAN_MOTION_DDOT": 0}, "tle": {"line1": "1 33887U 97051BG  25351.50289720  .00000400  00000+0  12791-3 0  9996", "line2": "2 33887  86.3042   1.3395 0004904 206.8502 305.3018 14.37225313882330"}}, "geometry": {"type": "Point", "coordinates": [-0.6092860049999596, -23.017217949902633]}}, {"type": "Feature", "properties": {"norad_id": 33953, "name": "IRIDIUM 33 DEB", "group": "iridium-33-debris", "lat": -19.99563733157952, "lon": -127.34733008107918, "alt_km": 718.7137091250388, "timestamp": "2025-12-18T08:58:43.799669+00:00", "meta": {"OBJECT_NAME": "IRIDIUM 33 DEB", "OBJECT_ID": "1997-051BN", "EPOCH": "2025-12-17T16:09:30.671424", "MEAN_MOTION": 14.55371526, "ECCENTRICITY": 0.00181202, "INCLINATION": 86.3847, "RA_OF_ASC_NODE": 51.6385, "ARG_OF_PERICENTER": 87.8438, "MEAN_ANOMALY": 42.2759, "EPHEMERIS_TYPE": 0, "CLASSIFICATION_TYPE": "U", "NORAD_CAT_ID": 33953, "ELEMENT_SET_NO": 999, "REV_AT_EPOCH": 88375, "BSTAR": 0.00082600684, "MEAN_MOTION_DOT": 3.613e-05, "MEAN_MOTION_DDOT": 0}, "tle": {"line1": "1 33953U 97051BN  25351.67327166  .00003613  00000+0  82601-3 0  9991", "line2": "2 33953  86.3847  51.6385 0018120  87.8438  42.2759 14.55371526883758"}}, "geometry": {"type": "Point", "coordinates": [-127.34733008107918, -19.99563733157952]}}, {"type": "Feature", "properties": {"norad_id": 33960, "name": "IRIDIUM 33 DEB", "group": "iridium-33-debris", "lat": -71.07303591456846, "lon": 117.87249926573868, "alt_km": 624.4271037095041, "timestamp": "2025-12-18T08:58:43.799679+00:00", "meta": {"OBJECT_NAME": "IRIDIUM 33 DEB", "OBJECT_ID": "1997-051BV", "EPOCH": "2025-12-17T19:11:44.757312", "MEAN_MOTION": 14.85444413, "ECCENTRICITY": 0.00074559, "INCLINATION": 86.2539, "RA_OF_ASC_NODE": 287.1279, "ARG_OF_PERICENTER": 54.0828, "MEAN_ANOMALY": 8.2478, "EPHEMERIS_TYPE": 0, "CLASSIFICATION_TYPE": "U", "NORAD_CAT_ID": 33960, "ELEMENT_SET_NO": 999, "REV_AT_EPOCH": 88942, "BSTAR": 0.0022545906, "MEAN_MOTION_DOT": 0.000195, "MEAN_MOTION_DDOT": 0}, "tle": {"line1": "1 33960U 97051BV  25351.79982358  .00019500  00000+0  22546-2 0  9995", "line2": "2 33960  86.2539 287.1279 0007455  54.0828   8.2478 14.85444413889428"}}, "geometry": {"type": "Point", "coordinates": [117.87249926573868, -71.07303591456846]}}, {"type": "Feature", "properties": {"norad_id": 33966, "name": "IRIDIUM 33 DEB", "group": "iridium-33-debris", "lat": -29.432825736901297, "lon": -134.35035328531725, "alt_km": 728.5361441175282, "timestamp": "2025-12-18T08:58:43.799689+00:00", "meta": {"OBJECT_NAME": "IRIDIUM 33 DEB", "OBJECT_ID": "1997-051CB", "EPOCH": "2025-12-17T16:02:50.820000", "MEAN_MOTION": 14.49613183, "ECCENTRICITY": 0.00079463, "INCLINATION": 86.3919, "RA_OF_ASC_NODE": 43.9121, "ARG_OF_PERICENTER": 172.4415, "MEAN_ANOMALY": 317.6514, "EPHEMERIS_TYPE": 0, "CLASSIFICATION_TYPE": "U", "NORAD_CAT_ID": 33966, "ELEMENT_SET_NO": 999, "REV_AT_EPOCH": 88513, "BSTAR": 0.00042551203, "MEAN_MOTION_DOT": 1.654e-05, "MEAN_MOTION_DDOT": 0}, "tle": {"line1": "1 33966U 97051CB  25351.66864375  .00001654  00000+0  42551-3 0  9995", "line2": "2 33966  86.3919  43.9121 0007946 172.4415 317.6514 14.49613183885137"}}, "geometry": {"type": "Point", "coordinates": [-134.35035328531725, -29.432825736901297]}}, {"type": "Feature", "properties": {"norad_id": 34071, "name": "IRIDIUM 33 DEB", "group": "iridium-33-debris", "lat": -85.19396609639273, "lon": -34.10058910719057, "alt_km": 741.8755957678768, "timestamp": "2025-12-18T08:58:43.799699+00:00", "meta": {"OBJECT_NAME": "IRIDIUM 33 DEB", "OBJECT_ID": "1997-051CE", "EPOCH": "2025-12-17T13:29:52.397664", "MEAN_MOTION": 14.49486285, "ECCENTRICITY": 0.00099928, "INCLINATION": 86.3453, "RA_OF_ASC_NODE": 15.7325, "ARG_OF_PERICENTER": 94.7771, "MEAN_ANOMALY": 265.4575, "EPHEMERIS_TYPE": 0, "CLASSIFICATION_TYPE": "U", "NORAD_CAT_ID": 34071, "ELEMENT_SET_NO": 999, "REV_AT_EPOCH": 88404, "BSTAR": 0.00046266915, "MEAN_MOTION_DOT": 1.793e-05, "MEAN_MOTION_DDOT": 0}, "tle": {"line1": "1 34071U 97051CE  25351.56241201  .00001793  00000+0  46267-3 0  9991", "line2": "2 34071  86.3453  15.7325 0009992  94.7771 265.4575 14.49486285884042"}}, "geometry": {"type": "Point", "coordinates": [-34.10058910719057, -85.19396609639273]}}]}